NORAD_CAT_ID,OBJECT_NAME,OBJECT_TYPE,EPOCH,MEAN_MOTION,ECCENTRICITY,INCLINATION,RA_OF_ASC_NODE,ARG_OF_PERICENTER,MEAN_ANOMALY,BSTAR,MEAN_MOTION_DOT,MEAN_MOTION_DDOT,TLE_LINE0,TLE_LINE1,TLE_LINE2,SEMIMAJOR_AXIS,PERIOD,APOGEE,PERIGEE,DECAYED
51137.0,STARLINK-3180,PAYLOAD,2022-11-06 10:27:08,15.08836474,0.0002601,53.2186,12.581,29.6437,330.4702,-5.823e-05,-1.215e-05,0.0,0 STARLINK-3180,1 51137U 22005AK  22310.43551743 -.00001215  00000-0 -58230-4 0  9999,2 51137  53.2186  12.5810 0002601  29.6437 330.4702 15.08836474 45780,6917.891,95.438,541.556,537.957,0.0
51137.0,STARLINK-3180,PAYLOAD,2022-11-06 12:02:31,15.08838051,0.000262,53.2184,12.284,30.1137,330.0005,-4.1474e-05,-9.48e-06,0.0,0 STARLINK-3180,1 51137U 22005AK  22310.50175639 -.00000948  00000-0 -41474-4 0  9997,2 51137  53.2184  12.2840 0002620  30.1137 330.0005 15.08838051 44686,6917.886,95.438,541.564,537.939,0.0
51137.0,STARLINK-3180,PAYLOAD,2022-11-07 10:17:56,15.08824519,0.000265,53.2186,8.1203,28.1053,332.0082,5.6312e-06,-1.99e-06,0.0,0 STARLINK-3180,1 51137U 22005AK  22311.42912552 -.00000199  00000-0  56312-5 0  9997,2 51137  53.2186   8.1203 0002650  28.1053 332.0082 15.08824519 45932,6917.928000000001,95.439,541.626,537.9590000000002,0.0
51137.0,STARLINK-3180,PAYLOAD,2022-11-07 13:28:42,15.0882853,0.0002842,53.219,7.5262,26.0532,334.0603,2.1159e-05,4.8e-07,0.0,0 STARLINK-3180,1 51137U 22005AK  22311.56160391  .00000048  00000-0  21159-4 0  9990,2 51137  53.2190   7.5262 0002842  26.0532 334.0603 15.08828530 44844,6917.915,95.438,541.747,537.814,0.0
51137.0,STARLINK-3180,PAYLOAD,2022-11-08 03:47:09,15.0884776,0.0002676,53.2186,4.8499,31.0342,329.0808,0.00022681,3.324e-05,0.0,0 STARLINK-3180,1 51137U 22005AK  22312.15774839  .00003324  00000-0  22681-3 0  9994,2 51137  53.2186   4.8499 0002676  31.0342 329.0808 15.08847760 46042,6917.857,95.437,541.573,537.87,0.0
51137.0,STARLINK-3180,PAYLOAD,2022-11-08 10:08:41,15.08849101,0.0002574,53.2185,3.6592,32.2465,327.8684,0.00022252,3.256e-05,0.0,0 STARLINK-3180,1 51137U 22005AK  22312.42270560  .00003256  00000-0  22252-3 0  9994,2 51137  53.2185   3.6592 0002574  32.2465 327.8684 15.08849101 44977,6917.853,95.437,541.498,537.937,0.0
51137.0,STARLINK-3180,PAYLOAD,2022-11-09 03:37:54,15.08865746,0.0002742,53.2197,0.3901,29.7639,330.3509,0.00024437,3.606e-05,0.0,0 STARLINK-3180,1 51137U 22005AK  22313.15132477  .00003606  00000-0  24437-3 0  9995,2 51137  53.2197   0.3901 0002742  29.7639 330.3509 15.08865746 46193,6917.802,95.436,541.564,537.77,0.0
51137.0,STARLINK-3180,PAYLOAD,2022-11-09 09:59:28,15.08839129,0.000244,53.2187,359.2015,27.3185,332.7935,7.2989e-05,8.73e-06,0.0,0 STARLINK-3180,1 51137U 22005AK  22313.41630227  .00000873  00000-0  72989-4 0  9999,2 51137  53.2187 359.2015 0002440  27.3185 332.7935 15.08839129 45126,6917.8830000000025,95.438,541.436,538.06,0.0
51137.0,STARLINK-3180,PAYLOAD,2022-11-10 03:28:45,15.08824318,0.0002273,53.2193,355.92900000000014,35.3424,324.7719,-0.00028465,-4.814e-05,0.0,0 STARLINK-3180,1 51137U 22005AK  22314.14496936 -.00004814  00000-0 -28465-3 0  9997,2 51137  53.2193 355.9290 0002273  35.3424 324.7719 15.08824318 46340,6917.928000000001,95.439,541.366,538.221,0.0
51137.0,STARLINK-3180,PAYLOAD,2022-11-10 09:50:17,15.08835933,0.0002756,53.2187,354.7409,28.5797,331.5346,-0.00020371,-3.529e-05,0.0,0 STARLINK-3180,1 51137U 22005AK  22314.40992163 -.00003529  00000-0 -20371-3 0  9999,2 51137  53.2187 354.7409 0002756  28.5797 331.5346 15.08835933 45273,6917.893,95.438,541.664,537.851,0.0
51137.0,STARLINK-3180,PAYLOAD,2022-11-10 19:22:37,15.08819754,0.0002803,53.2191,352.9557,29.7692,330.346,-0.00029497,-4.978e-05,0.0,0 STARLINK-3180,1 51137U 22005AK  22314.80737812 -.00004978  00000-0 -29497-3 0  9998,2 51137  53.2191 352.9557 0002803  29.7692 330.3460 15.08819754 45336,6917.941999999999,95.439,541.746,537.868,0.0
51137.0,STARLINK-3180,PAYLOAD,2022-11-11 03:19:32,15.08822665,0.0002697,53.2181,351.4692,28.2289,331.8849,-0.0001837,-3.21e-05,0.0,0 STARLINK-3180,1 51137U 22005AK  22315.13857475 -.00003210  00000-0 -18370-3 0  9999,2 51137  53.2181 351.4692 0002697  28.2289 331.8849 15.08822665 46496,6917.933000000001,95.439,541.664,537.933,0.0
51137.0,STARLINK-3180,PAYLOAD,2022-11-11 09:41:05,15.0882561,0.0002731,53.2182,350.2804,28.9631,331.1512,-0.00013907,-2.5e-05,0.0,0 STARLINK-3180,1 51137U 22005AK  22315.40353492 -.00002500  00000-0 -13907-3 0  9991,2 51137  53.2182 350.2804 0002731  28.9631 331.1512 15.08825610 45421,6917.924,95.438,541.679,537.9,0.0
51137.0,STARLINK-3180,PAYLOAD,2022-11-11 23:59:33,15.08823335,0.0002802,53.2181,347.6032,30.7984,329.3172,0.00018641,2.678e-05,0.0,0 STARLINK-3180,1 51137U 22005AK  22315.99969744  .00002678  00000-0  18641-3 0  9992,2 51137  53.2181 347.6032 0002802  30.7984 329.3172 15.08823335 46620,6917.931,95.439,541.735,537.8580000000002,0.0
51137.0,STARLINK-3180,PAYLOAD,2022-11-12 11:07:15,15.08840502,0.0002901,53.2181,345.5223,31.0172,329.0991,0.00031472,4.724e-05,0.0,0 STARLINK-3180,1 51137U 22005AK  22316.46337041  .00004724  00000-0  31472-3 0  9995,2 51137  53.2181 345.5223 0002901  31.0172 329.0991 15.08840502 46690,6917.879,95.438,541.751,537.737,0.0
51137.0,STARLINK-3180,PAYLOAD,2022-11-12 19:04:10,15.08852687,0.0002787,53.2181,344.0354,33.9369,326.1801,0.00036231,5.485e-05,0.0,0 STARLINK-3180,1 51137U 22005AK  22316.79456240  .00005485  00000-0  36231-3 0  9997,2 51137  53.2181 344.0354 0002787  33.9369 326.1801 15.08852687 45638,6917.842,95.437,541.635,537.779,0.0
51137.0,STARLINK-3180,PAYLOAD,2022-11-13 10:58:02,15.08841587,0.0002773,53.2173,341.0612,34.1868,325.9302,2.3371e-05,8.3e-07,0.0,0 STARLINK-3180,1 51137U 22005AK  22317.45697289  .00000083  00000-0  23371-4 0  9992,2 51137  53.2173 341.0612 0002773  34.1868 325.9302 15.08841587 46849,6917.876,95.437,541.659,537.822,0.0
51137.0,STARLINK-3180,PAYLOAD,2022-11-13 18:54:58,15.08832729,0.0002783,53.2175,339.5743,35.5328,324.5849,-0.00010049,-1.887e-05,0.0,0 STARLINK-3180,1 51137U 22005AK  22317.78817825 -.00001887  00000-0 -10049-3 0  9990,2 51137  53.2175 339.5743 0002783  35.5328 324.5849 15.08832729 46899,6917.903,95.438,541.693,537.842,0.0
51137.0,STARLINK-3180,PAYLOAD,2022-11-14 09:13:26,15.08851417,0.0002738,53.2179,336.8986,34.7255,325.3915,5.0298e-05,5.12e-06,0.0,0 STARLINK-3180,1 51137U 22005AK  22318.38433083  .00000512  00000-0  50298-4 0  9990,2 51137  53.2179 336.8986 0002738  34.7255 325.3915 15.08851417 46980,6917.845,95.437,541.605,537.816,0.0
51137.0,STARLINK-3180,PAYLOAD,2022-11-14 10:48:49,15.08852189,0.0002738,53.2179,336.6011,34.8399,325.2772,5.639600000000003e-05,6.09e-06,0.0,0 STARLINK-3180,1 51137U 22005AK  22318.45056969  .00000609  00000-0  56396-4 0  9994,2 51137  53.2179 336.6011 0002738  34.8399 325.2772 15.08852189 45882,6917.843000000003,95.437,541.602,537.814,0.0
51137.0,STARLINK-3180,PAYLOAD,2022-11-15 12:14:59,15.08834379,0.0002739,53.2176,331.8434,33.0473,327.069,-5.7066e-06,-3.79e-06,0.0,0 STARLINK-3180,1 51137U 22005AK  22319.51041335 -.00000379  00000-0 -57066-5 0  9995,2 51137  53.2176 331.8434 0002739  33.0473 327.0690 15.08834379 46049,6917.898,95.438,541.6569999999998,537.868,0.0
51137.0,STARLINK-3180,PAYLOAD,2022-11-15 13:50:22,15.08838538,0.0002669,53.2181,331.5453,34.3058,325.8106,2.8964000000000013e-05,1.72e-06,0.0,0 STARLINK-3180,1 51137U 22005AK  22319.57665209  .00000172  00000-0  28964-4 0  9996,2 51137  53.2181 331.5453 0002669  34.3058 325.8106 15.08838538 47161,6917.885,95.438,541.596,537.903,0.0
51137.0,STARLINK-3180,PAYLOAD,2022-11-15 20:11:55,15.08836595,0.0002757,53.2184,330.3567,33.4401,326.6764,0.00011716,1.576e-05,0.0,0 STARLINK-3180,1 51137U 22005AK  22319.84161150  .00001576  00000-0  11716-3 0  9997,2 51137  53.2184 330.3567 0002757  33.4401 326.6764 15.08836595 46098,6917.891,95.438,541.663,537.849,0.0
51137.0,STARLINK-3180,PAYLOAD,2022-11-16 07:19:37,15.0883885,0.0002698,53.2183,328.2748,31.6081,328.5073,9.9836e-05,1.301e-05,0.0,0 STARLINK-3180,1 51137U 22005AK  22320.30529111  .00001301  00000-0  99836-4 0  9991,2 51137  53.2183 328.2748 0002698  31.6081 328.5073 15.08838850 46160,6917.884,95.438,541.615,537.882,0.0
51137.0,STARLINK-3180,PAYLOAD,2022-11-17 00:48:51,15.08835139,0.00028,53.2177,325.0044,30.7511,329.3645,2.4609e-05,1.03e-06,0.0,0 STARLINK-3180,1 51137U 22005AK  22321.03393432  .00000103  00000-0  24609-4 0  9992,2 51137  53.2177 325.0044 0002800  30.7511 329.3645 15.08835139 47386,6917.895,95.438,541.697,537.823,0.0
51137.0,STARLINK-3180,PAYLOAD,2022-11-17 07:10:24,15.08833004,0.0002774,53.2176,323.8142,32.1079,328.0082,3.8008e-06,-2.28e-06,0.0,0 STARLINK-3180,1 51137U 22005AK  22321.29889770 -.00000228  00000-0  38008-5 0  9993,2 51137  53.2176 323.8142 0002774  32.1079 328.0082 15.08833004 46317,6917.901999999999,95.438,541.686,537.8480000000002,0.0
51137.0,STARLINK-3180,PAYLOAD,2022-11-18 00:39:38,15.08842004,0.0002772,53.2178,320.5433,32.5084,327.6078,0.00010255,1.344e-05,0.0,0 STARLINK-3180,1 51137U 22005AK  22322.02753018  .00001344  00000-0  10255-3 0  9991,2 51137  53.2178 320.5433 0002772  32.5084 327.6078 15.08842004 47539,6917.874,95.437,541.6569999999998,537.822,0.0
51137.0,STARLINK-3180,PAYLOAD,2022-11-18 07:01:11,15.08840153,0.0002796,53.2177,319.3529,33.1765,326.9402,4.3556e-05,4.05e-06,0.0,0 STARLINK-3180,1 51137U 22005AK  22322.29249243  .00000405  00000-0  43556-4 0  9998,2 51137  53.2177 319.3529 0002796  33.1765 326.9402 15.08840153 46466,6917.88,95.438,541.679,537.811,0.0
51137.0,STARLINK-3180,PAYLOAD,2022-11-18 16:33:30,15.08837592,0.0002788999999999,53.218,317.5695,31.1686,328.9471,4.954e-05,5e-06,0.0,0 STARLINK-3180,1 51137U 22005AK  22322.68993580  .00000500  00000-0  49540-4 0  9996,2 51137  53.2180 317.5695 0002789  31.1686 328.9471 15.08837592 47637,6917.888000000001,95.438,541.682,537.823,0.0
